METEOSAT-11 (MSG-4)     
1 40732U 15034A   26073.92686992  .00000062  00000+0  00000+0 0  9994
2 40732   2.9646  71.6176 0001832 275.0382 168.7821  1.00269428  6274
ELEKTRO-L 2             
1 41105U 15074A   26073.77957674 -.00000114  00000+0  00000+0 0  9993
2 41105   6.4559  71.6786 0002825 249.1681 117.6766  1.00273455 37567
INSAT-3DR               
1 41752U 16054A   26073.93969664 -.00000078  00000+0  00000+0 0  9999
2 41752   0.0732  91.5927 0012714 190.6293 302.6052  1.00271947 34872
HIMAWARI-9              
1 41836U 16064A   26072.32490329 -.00000275  00000+0  00000+0 0  9991
2 41836   0.0168 188.9082 0001493 206.6887  33.0744  1.00270032 34248
GOES 16                 
1 41866U 16071A   26073.90433650 -.00000092  00000+0  00000+0 0  9998
2 41866   0.1245  86.9024 0002175 229.7377  76.7393  1.00272325 34150
FENGYUN 4A              
1 41882U 16077A   26073.94957669 -.00000356  00000+0  00000+0 0  9990
2 41882   2.0814  81.2741 0007133 133.1196  63.7673  1.00274281 33981
CYGFM05                 
1 41884U 16078A   26073.65231446  .00030580  00000+0  48299-3 0  9996
2 41884  34.9574 164.6361 0006701 330.1782  29.8559 15.52451571514031
CYGFM04                 
1 41885U 16078B   26073.88288781  .00033422  00000+0  46433-3 0  9992
2 41885  34.9330 135.0011 0005040   9.1880 350.8935 15.55949892514275
CYGFM02                 
1 41886U 16078C   26073.84036421  .00037536  00000+0  47718-3 0  9998
2 41886  34.9416 132.0669 0006020  12.1881 347.8988 15.58295267514414
CYGFM01                 
1 41887U 16078D   26073.93517395  .00028724  00000+0  44620-3 0  9991
2 41887  34.9406 164.5289 0006430 323.5569  36.4716 15.52921050514026
CYGFM08                 
1 41888U 16078E   26073.90876079  .00031556  00000+0  45725-3 0  9990
2 41888  34.9438 146.4582 0007373 353.1007   6.9615 15.54803649514261
CYGFM07                 
1 41890U 16078G   26073.87433820  .00031914  00000+0  45673-3 0  9992
2 41890  34.9455 135.1164 0005511  12.5373 347.5487 15.55152752514284
CYGFM03                 
1 41891U 16078H   26073.58859141  .00034304  00000+0  49101-3 0  9995
2 41891  34.9410 138.9786 0005092 352.8939   7.1712 15.55139814514216
FENGYUN 3D              
1 43010U 17072A   26073.92184950 -.00000060  00000+0 -66765-5 0  9993
2 43010  99.0035  46.6871 0001303   1.5178 358.6002 14.19716061431612
NOAA 20 (JPSS-1)        
1 43013U 17073A   26073.90332552  .00000084  00000+0  60630-4 0  9996
2 43013  98.7697  14.2387 0001429 130.7827 229.3474 14.19537606431098
GOES 17                 
1 43226U 18022A   26073.90728318 -.00000183  00000+0  00000+0 0  9997
2 43226   0.6936  87.3133 0001624 234.3614  87.9513  1.00272409 29474
FENGYUN 2H              
1 43491U 18050A   26073.94073666 -.00000127  00000+0  00000+0 0  9993
2 43491   2.7860  80.2192 0001315 170.6131 339.4808  1.00272533 28498
