[{"OBJECT_NAME":"METEOSAT-11 (MSG-4)","OBJECT_ID":"2015-034A","EPOCH":"2026-03-14T22:14:41.561088","MEAN_MOTION":1.00269428,"ECCENTRICITY":0.00018329,"INCLINATION":2.9646,"RA_OF_ASC_NODE":71.6176,"ARG_OF_PERICENTER":275.0382,"MEAN_ANOMALY":168.7821,"EPHEMERIS_TYPE":0,"CLASSIFICATION_TYPE":"U","NORAD_CAT_ID":40732,"ELEMENT_SET_NO":999,"REV_AT_EPOCH":627,"BSTAR":0,"MEAN_MOTION_DOT":6.2e-7,"MEAN_MOTION_DDOT":0},{"OBJECT_NAME":"ELEKTRO-L 2","OBJECT_ID":"2015-074A","EPOCH":"2026-03-14T18:42:35.430336","MEAN_MOTION":1.00273455,"ECCENTRICITY":0.00028257,"INCLINATION":6.4559,"RA_OF_ASC_NODE":71.6786,"ARG_OF_PERICENTER":249.1681,"MEAN_ANOMALY":117.6766,"EPHEMERIS_TYPE":0,"CLASSIFICATION_TYPE":"U","NORAD_CAT_ID":41105,"ELEMENT_SET_NO":999,"REV_AT_EPOCH":3756,"BSTAR":0,"MEAN_MOTION_DOT":-1.14e-6,"MEAN_MOTION_DDOT":0},{"OBJECT_NAME":"INSAT-3DR","OBJECT_ID":"2016-054A","EPOCH":"2026-03-14T22:33:09.789696","MEAN_MOTION":1.00271947,"ECCENTRICITY":0.00127147,"INCLINATION":0.0732,"RA_OF_ASC_NODE":91.5927,"ARG_OF_PERICENTER":190.6293,"MEAN_ANOMALY":302.6052,"EPHEMERIS_TYPE":0,"CLASSIFICATION_TYPE":"U","NORAD_CAT_ID":41752,"ELEMENT_SET_NO":999,"REV_AT_EPOCH":3487,"BSTAR":0,"MEAN_MOTION_DOT":-7.8e-7,"MEAN_MOTION_DDOT":0},{"OBJECT_NAME":"HIMAWARI-9","OBJECT_ID":"2016-064A","EPOCH":"2026-03-13T07:47:51.644256","MEAN_MOTION":1.00270032,"ECCENTRICITY":0.00014931,"INCLINATION":0.0168,"RA_OF_ASC_NODE":188.9082,"ARG_OF_PERICENTER":206.6887,"MEAN_ANOMALY":33.0744,"EPHEMERIS_TYPE":0,"CLASSIFICATION_TYPE":"U","NORAD_CAT_ID":41836,"ELEMENT_SET_NO":999,"REV_AT_EPOCH":3424,"BSTAR":0,"MEAN_MOTION_DOT":-2.75e-6,"MEAN_MOTION_DDOT":0},{"OBJECT_NAME":"GOES 16","OBJECT_ID":"2016-071A","EPOCH":"2026-03-14T21:42:14.673600","MEAN_MOTION":1.00272325,"ECCENTRICITY":0.00021751,"INCLINATION":0.1245,"RA_OF_ASC_NODE":86.9024,"ARG_OF_PERICENTER":229.7377,"MEAN_ANOMALY":76.7393,"EPHEMERIS_TYPE":0,"CLASSIFICATION_TYPE":"U","NORAD_CAT_ID":41866,"ELEMENT_SET_NO":999,"REV_AT_EPOCH":3415,"BSTAR":0,"MEAN_MOTION_DOT":-9.2e-7,"MEAN_MOTION_DDOT":0},{"OBJECT_NAME":"FENGYUN 4A","OBJECT_ID":"2016-077A","EPOCH":"2026-03-14T22:47:23.426016","MEAN_MOTION":1.00274281,"ECCENTRICITY":0.00071336,"INCLINATION":2.0814,"RA_OF_ASC_NODE":81.2741,"ARG_OF_PERICENTER":133.1196,"MEAN_ANOMALY":63.7673,"EPHEMERIS_TYPE":0,"CLASSIFICATION_TYPE":"U","NORAD_CAT_ID":41882,"ELEMENT_SET_NO":999,"REV_AT_EPOCH":3398,"BSTAR":0,"MEAN_MOTION_DOT":-3.56e-6,"MEAN_MOTION_DDOT":0},{"OBJECT_NAME":"CYGFM05","OBJECT_ID":"2016-078A","EPOCH":"2026-03-14T15:39:19.969344","MEAN_MOTION":15.52451571,"ECCENTRICITY":0.00067011,"INCLINATION":34.9574,"RA_OF_ASC_NODE":164.6361,"ARG_OF_PERICENTER":330.1782,"MEAN_ANOMALY":29.8559,"EPHEMERIS_TYPE":0,"CLASSIFICATION_TYPE":"U","NORAD_CAT_ID":41884,"ELEMENT_SET_NO":999,"REV_AT_EPOCH":51403,"BSTAR":0.00048299288,"MEAN_MOTION_DOT":0.0003058,"MEAN_MOTION_DDOT":0},{"OBJECT_NAME":"CYGFM04","OBJECT_ID":"2016-078B","EPOCH":"2026-03-14T21:11:21.506784","MEAN_MOTION":15.55949892,"ECCENTRICITY":0.00050404,"INCLINATION":34.933,"RA_OF_ASC_NODE":135.0011,"ARG_OF_PERICENTER":9.188,"MEAN_ANOMALY":350.8935,"EPHEMERIS_TYPE":0,"CLASSIFICATION_TYPE":"U","NORAD_CAT_ID":41885,"ELEMENT_SET_NO":999,"REV_AT_EPOCH":51427,"BSTAR":0.00046433211,"MEAN_MOTION_DOT":0.00033422,"MEAN_MOTION_DDOT":0},{"OBJECT_NAME":"CYGFM02","OBJECT_ID":"2016-078C","EPOCH":"2026-03-14T20:10:07.467744","MEAN_MOTION":15.58295267,"ECCENTRICITY":0.00060201,"INCLINATION":34.9416,"RA_OF_ASC_NODE":132.0669,"ARG_OF_PERICENTER":12.1881,"MEAN_ANOMALY":347.8988,"EPHEMERIS_TYPE":0,"CLASSIFICATION_TYPE":"U","NORAD_CAT_ID":41886,"ELEMENT_SET_NO":999,"REV_AT_EPOCH":51441,"BSTAR":0.00047718008,"MEAN_MOTION_DOT":0.00037536,"MEAN_MOTION_DDOT":0},{"OBJECT_NAME":"CYGFM01","OBJECT_ID":"2016-078D","EPOCH":"2026-03-14T22:26:39.029280","MEAN_MOTION":15.5292105,"ECCENTRICITY":0.000643,"INCLINATION":34.9406,"RA_OF_ASC_NODE":164.5289,"ARG_OF_PERICENTER":323.5569,"MEAN_ANOMALY":36.4716,"EPHEMERIS_TYPE":0,"CLASSIFICATION_TYPE":"U","NORAD_CAT_ID":41887,"ELEMENT_SET_NO":999,"REV_AT_EPOCH":51402,"BSTAR":0.00044619971,"MEAN_MOTION_DOT":0.00028724,"MEAN_MOTION_DDOT":0},{"OBJECT_NAME":"CYGFM08","OBJECT_ID":"2016-078E","EPOCH":"2026-03-14T21:48:36.932256","MEAN_MOTION":15.54803649,"ECCENTRICITY":0.00073734,"INCLINATION":34.9438,"RA_OF_ASC_NODE":146.4582,"ARG_OF_PERICENTER":353.1007,"MEAN_ANOMALY":6.9615,"EPHEMERIS_TYPE":0,"CLASSIFICATION_TYPE":"U","NORAD_CAT_ID":41888,"ELEMENT_SET_NO":999,"REV_AT_EPOCH":51426,"BSTAR":0.00045724773,"MEAN_MOTION_DOT":0.00031556,"MEAN_MOTION_DDOT":0},{"OBJECT_NAME":"CYGFM07","OBJECT_ID":"2016-078G","EPOCH":"2026-03-14T20:59:02.820480","MEAN_MOTION":15.55152752,"ECCENTRICITY":0.00055112,"INCLINATION":34.9455,"RA_OF_ASC_NODE":135.1164,"ARG_OF_PERICENTER":12.5373,"MEAN_ANOMALY":347.5487,"EPHEMERIS_TYPE":0,"CLASSIFICATION_TYPE":"U","NORAD_CAT_ID":41890,"ELEMENT_SET_NO":999,"REV_AT_EPOCH":51428,"BSTAR":0.00045673292,"MEAN_MOTION_DOT":0.00031914,"MEAN_MOTION_DDOT":0},{"OBJECT_NAME":"CYGFM03","OBJECT_ID":"2016-078H","EPOCH":"2026-03-14T14:07:34.297824","MEAN_MOTION":15.55139814,"ECCENTRICITY":0.00050929,"INCLINATION":34.941,"RA_OF_ASC_NODE":138.9786,"ARG_OF_PERICENTER":352.8939,"MEAN_ANOMALY":7.1712,"EPHEMERIS_TYPE":0,"CLASSIFICATION_TYPE":"U","NORAD_CAT_ID":41891,"ELEMENT_SET_NO":999,"REV_AT_EPOCH":51421,"BSTAR":0.00049101259,"MEAN_MOTION_DOT":0.00034304,"MEAN_MOTION_DDOT":0},{"OBJECT_NAME":"FENGYUN 3D","OBJECT_ID":"2017-072A","EPOCH":"2026-03-14T22:07:27.796800","MEAN_MOTION":14.19716061,"ECCENTRICITY":0.00013037,"INCLINATION":99.0035,"RA_OF_ASC_NODE":46.6871,"ARG_OF_PERICENTER":1.5178,"MEAN_ANOMALY":358.6002,"EPHEMERIS_TYPE":0,"CLASSIFICATION_TYPE":"U","NORAD_CAT_ID":43010,"ELEMENT_SET_NO":999,"REV_AT_EPOCH":43161,"BSTAR":-6.676536e-6,"MEAN_MOTION_DOT":-6.0e-7,"MEAN_MOTION_DDOT":0},{"OBJECT_NAME":"NOAA 20 (JPSS-1)","OBJECT_ID":"2017-073A","EPOCH":"2026-03-14T21:40:47.324928","MEAN_MOTION":14.19537606,"ECCENTRICITY":0.00014293,"INCLINATION":98.7697,"RA_OF_ASC_NODE":14.2387,"ARG_OF_PERICENTER":130.7827,"MEAN_ANOMALY":229.3474,"EPHEMERIS_TYPE":0,"CLASSIFICATION_TYPE":"U","NORAD_CAT_ID":43013,"ELEMENT_SET_NO":999,"REV_AT_EPOCH":43109,"BSTAR":6.0629684e-5,"MEAN_MOTION_DOT":8.4e-7,"MEAN_MOTION_DDOT":0},{"OBJECT_NAME":"GOES 17","OBJECT_ID":"2018-022A","EPOCH":"2026-03-14T21:46:29.266752","MEAN_MOTION":1.00272409,"ECCENTRICITY":0.00016248,"INCLINATION":0.6936,"RA_OF_ASC_NODE":87.3133,"ARG_OF_PERICENTER":234.3614,"MEAN_ANOMALY":87.9513,"EPHEMERIS_TYPE":0,"CLASSIFICATION_TYPE":"U","NORAD_CAT_ID":43226,"ELEMENT_SET_NO":999,"REV_AT_EPOCH":2947,"BSTAR":0,"MEAN_MOTION_DOT":-1.83e-6,"MEAN_MOTION_DDOT":0},{"OBJECT_NAME":"FENGYUN 2H","OBJECT_ID":"2018-050A","EPOCH":"2026-03-14T22:34:39.647424","MEAN_MOTION":1.00272533,"ECCENTRICITY":0.00013159,"INCLINATION":2.786,"RA_OF_ASC_NODE":80.2192,"ARG_OF_PERICENTER":170.6131,"MEAN_ANOMALY":339.4808,"EPHEMERIS_TYPE":0,"CLASSIFICATION_TYPE":"U","NORAD_CAT_ID":43491,"ELEMENT_SET_NO":999,"REV_AT_EPOCH":2849,"BSTAR":0,"MEAN_MOTION_DOT":-1.27e-6,"MEAN_MOTION_DDOT":0}]
